{
  "type": "FeatureCollection",
  "features": [
    {
      "type":"Feature","geometry":null,
      "properties":{"id":"edificio-rodrigues-lima","titulo":"Edifício Rodrigues Lima","instituicao":"Mosteiro de Nossa Senhora da Graça","tipo_instituicao":"mosteiro","tipo_registro":"contemporaneo","relacao_fundiaria":"Foreiro ao Mosteiro de Nossa Senhora da Graça","senhorio_direto":null,"foreiro":null,"data_inicio":null,"data_fim":null,"toponimo_historico":null,"endereco_atual":"Av. Sete de Setembro, 3435 — Ladeira da Barra","descricao_territorial":"terreno de 220 m²","area":"220 m²","dimensoes":"11 × 20 m","unidade_historica":null,"valor_foro":null,"periodicidade":null,"forma_aquisicao":null,"documento_aquisicao":null,"fonte_primaria":null,"folio":null,"fonte_secundaria":null,"url_fonte":null,"matricula_atual":"2.887","status_enfiteuse_atual":null,"grau_correspondencia_geografica":"endereço conhecido; limites do lote ainda não reconstruídos","status_documental":"registro contemporâneo a conferir","ultima_verificacao":null,"observacoes":"A relação documental não constitui prova de propriedade atual do mosteiro."}
    },
    {
      "type":"Feature","geometry":null,
      "properties":{"id":"morro-ipiranga-silvino-marques","titulo":"Morro Ipiranga / Rua Silvino Marques","instituicao":"Mosteiro de Nossa Senhora da Graça","tipo_instituicao":"mosteiro","tipo_registro":"contemporaneo","relacao_fundiaria":"Foreiro ao Mosteiro de Nossa Senhora da Graça","senhorio_direto":null,"foreiro":null,"data_inicio":null,"data_fim":null,"toponimo_historico":null,"endereco_atual":"Rua Silvino Marques, 329","descricao_territorial":null,"area":"aproximadamente 1.235 m²","dimensoes":null,"unidade_historica":null,"valor_foro":null,"periodicidade":null,"forma_aquisicao":null,"documento_aquisicao":null,"fonte_primaria":null,"folio":null,"fonte_secundaria":null,"url_fonte":null,"matricula_atual":"49.294","status_enfiteuse_atual":null,"grau_correspondencia_geografica":"endereço conhecido; limites do lote ainda não reconstruídos","status_documental":"registro contemporâneo a conferir","ultima_verificacao":null,"observacoes":"A relação documental não constitui prova de propriedade atual do mosteiro."}
    },
    {
      "type":"Feature","geometry":null,
      "properties":{"id":"antigo-hospital-espanhol","titulo":"Antigo Hospital Espanhol","instituicao":"Mosteiro de Nossa Senhora da Graça","tipo_instituicao":"mosteiro","tipo_registro":"contemporaneo","relacao_fundiaria":"Terreno descrito em documentação contemporânea como enfitêutico/foreiro ao Mosteiro de Nossa Senhora da Graça","senhorio_direto":null,"foreiro":null,"data_inicio":null,"data_fim":null,"toponimo_historico":null,"endereco_atual":null,"descricao_territorial":null,"area":null,"dimensoes":null,"unidade_historica":null,"valor_foro":null,"periodicidade":null,"forma_aquisicao":null,"documento_aquisicao":null,"fonte_primaria":null,"folio":null,"fonte_secundaria":null,"url_fonte":null,"matricula_atual":"42.177","status_enfiteuse_atual":null,"grau_correspondencia_geografica":"localização exata em investigação","status_documental":"ato público identificado; cadeia registral ainda em investigação","ultima_verificacao":null,"observacoes":"A relação documental não constitui prova de propriedade atual do mosteiro."}
    },
    {
      "type":"Feature","geometry":null,
      "properties":{"id":"avenida-princesa-isabel-179","titulo":"Av. Princesa Isabel","instituicao":"Mosteiro de São Bento","tipo_instituicao":"mosteiro","tipo_registro":"contemporaneo","relacao_fundiaria":"Foreiro ao Mosteiro de São Bento","senhorio_direto":null,"foreiro":null,"data_inicio":null,"data_fim":null,"toponimo_historico":null,"endereco_atual":"Av. Princesa Isabel, 179","descricao_territorial":null,"area":"aproximadamente 1.744,37 m²","dimensoes":null,"unidade_historica":null,"valor_foro":null,"periodicidade":null,"forma_aquisicao":null,"documento_aquisicao":null,"fonte_primaria":null,"folio":null,"fonte_secundaria":null,"url_fonte":null,"matricula_atual":"19.258","status_enfiteuse_atual":null,"grau_correspondencia_geografica":"endereço conhecido; limites do lote ainda não reconstruídos","status_documental":"registro contemporâneo a conferir","ultima_verificacao":null,"observacoes":"A relação documental não constitui prova de propriedade atual do mosteiro."}
    },
    {
      "type":"Feature","geometry":null,
      "properties":{"id":"mato-da-costa-1827-1832","titulo":"Mato da Costa","instituicao":"Mosteiro de Nossa Senhora da Graça","tipo_instituicao":"mosteiro","tipo_registro":"historico","relacao_fundiaria":"pedido de aforamento","senhorio_direto":null,"foreiro":null,"data_inicio":"1827","data_fim":"1832","toponimo_historico":"Mato da Costa","endereco_atual":null,"descricao_territorial":"Referência a pedido de aforamento relacionado ao chamado Mato da Costa.","area":null,"dimensoes":null,"unidade_historica":null,"valor_foro":null,"periodicidade":null,"forma_aquisicao":null,"documento_aquisicao":null,"fonte_primaria":"Códice 158","folio":"fólios 11 e 24","fonte_secundaria":"Fonte arquivística indicada na literatura","url_fonte":null,"matricula_atual":null,"status_enfiteuse_atual":null,"grau_correspondencia_geografica":"topônimo histórico; localização exata em investigação","status_documental":"em investigação","ultima_verificacao":null,"observacoes":null}
    },
    {
      "type":"Feature","geometry":null,
      "properties":{"id":"graca-aforamentos-1832","titulo":"Graça — aforamentos de 1832","instituicao":"Mosteiro de Nossa Senhora da Graça","tipo_instituicao":"mosteiro","tipo_registro":"historico","relacao_fundiaria":"aforamento","senhorio_direto":null,"foreiro":null,"data_inicio":"1832","data_fim":"1832","toponimo_historico":"Graça","endereco_atual":null,"descricao_territorial":"A documentação secundária registra terrenos na região da Graça com dimensões expressas em braças, incluindo referência a terreno de 8 × 30 braças e outro pedido de 30 × 40 braças.","area":null,"dimensoes":"8 × 30 braças; 30 × 40 braças","unidade_historica":"braça","valor_foro":null,"periodicidade":null,"forma_aquisicao":null,"documento_aquisicao":null,"fonte_primaria":"Códice 165","folio":"fólio 64","fonte_secundaria":"documentação secundária","url_fonte":null,"matricula_atual":null,"status_enfiteuse_atual":null,"grau_correspondencia_geografica":"região conhecida; parcela ainda não localizada","status_documental":"em investigação","ultima_verificacao":null,"observacoes":null}
    }
  ]
}
